[{"OBJECT_NAME":"STARLINK-31215","OBJECT_ID":"2024-019V","EPOCH":"2026-03-09T11:40:09.524640","MEAN_MOTION":15.27588758,"ECCENTRICITY":6.504e-5,"INCLINATION":42.9994,"RA_OF_ASC_NODE":249.8653,"ARG_OF_PERICENTER":246.3308,"MEAN_ANOMALY":113.7475,"EPHEMERIS_TYPE":0,"CLASSIFICATION_TYPE":"U","NORAD_CAT_ID":58872,"ELEMENT_SET_NO":999,"REV_AT_EPOCH":11903,"BSTAR":0.00015458097,"MEAN_MOTION_DOT":3.995e-5,"MEAN_MOTION_DDOT":0},{"OBJECT_NAME":"LIME","OBJECT_ID":"2025-009AR","EPOCH":"2026-03-09T17:44:15.459648","MEAN_MOTION":15.28703313,"ECCENTRICITY":0.00016347,"INCLINATION":97.3985,"RA_OF_ASC_NODE":151.4831,"ARG_OF_PERICENTER":35.9029,"MEAN_ANOMALY":324.232,"EPHEMERIS_TYPE":0,"CLASSIFICATION_TYPE":"U","NORAD_CAT_ID":62648,"ELEMENT_SET_NO":999,"REV_AT_EPOCH":6376,"BSTAR":0.00047722827,"MEAN_MOTION_DOT":0.00013254,"MEAN_MOTION_DDOT":0}]
