STARLINK-31215          
1 58872U 24019V   26068.48622135  .00003995  00000+0  15458-3 0  9990
2 58872  42.9994 249.8653 0000650 246.3308 113.7475 15.27588758119031
LIME                    
1 62648U 25009AR  26068.73906781  .00013254  00000+0  47723-3 0  9995
2 62648  97.3985 151.4831 0001635  35.9029 324.2320 15.28703313 63766
